[{"OBJECT_NAME":"STARLINK-30041","OBJECT_ID":"2023-119M","EPOCH":"2026-03-09T22:00:01.999584","MEAN_MOTION":15.15940564,"ECCENTRICITY":0.00012576,"INCLINATION":43.0013,"RA_OF_ASC_NODE":79.6987,"ARG_OF_PERICENTER":273.3411,"MEAN_ANOMALY":241.7822,"EPHEMERIS_TYPE":0,"CLASSIFICATION_TYPE":"U","NORAD_CAT_ID":57613,"ELEMENT_SET_NO":999,"REV_AT_EPOCH":562,"BSTAR":0.06109031,"MEAN_MOTION_DOT":0.01292259,"MEAN_MOTION_DDOT":0},{"OBJECT_NAME":"SUPERVIEW NEO-1 03","OBJECT_ID":"2025-040A","EPOCH":"2026-03-09T18:28:12.817056","MEAN_MOTION":15.21682826,"ECCENTRICITY":0.00014726,"INCLINATION":97.338,"RA_OF_ASC_NODE":185.5773,"ARG_OF_PERICENTER":140.3569,"MEAN_ANOMALY":219.7775,"EPHEMERIS_TYPE":0,"CLASSIFICATION_TYPE":"U","NORAD_CAT_ID":63125,"ELEMENT_SET_NO":999,"REV_AT_EPOCH":5706,"BSTAR":4.236936e-6,"MEAN_MOTION_DOT":2.9e-7,"MEAN_MOTION_DDOT":0}]
